NORAD_CAT_ID,OBJECT_NAME,OBJECT_TYPE,EPOCH,MEAN_MOTION,ECCENTRICITY,INCLINATION,RA_OF_ASC_NODE,ARG_OF_PERICENTER,MEAN_ANOMALY,BSTAR,MEAN_MOTION_DOT,MEAN_MOTION_DDOT,TLE_LINE0,TLE_LINE1,TLE_LINE2,SEMIMAJOR_AXIS,PERIOD,APOGEE,PERIGEE,DECAYED
54094.0,STARLINK-5219,PAYLOAD,2023-06-07 02:05:02,15.08836219,9.44e-05,53.2158,172.7654,90.6837,269.4263,7.7533e-06,-1.64e-06,0.0,0 STARLINK-5219,1 54094U 22136AV  23158.08683843 -.00000164  00000-0  77533-5 0  9997,2 54094  53.2158 172.7654 0000944  90.6837 269.4263 15.08836219 35496,6917.892,95.438,540.41,539.104,0.0
54094.0,STARLINK-5219,PAYLOAD,2023-06-07 10:01:58,15.08837806,9.37e-05,53.2155,171.2784,88.6406,271.4694,2.5576e-05,1.19e-06,0.0,0 STARLINK-5219,1 54094U 22136AV  23158.41803741  .00000119  00000-0  25576-4 0  9993,2 54094  53.2155 171.2784 0000937  88.6406 271.4694 15.08837806 35070,6917.887,95.438,540.4,539.104,0.0
54094.0,STARLINK-5219,PAYLOAD,2023-06-07 17:58:54,15.08836242,9.29e-05,53.2155,169.7916,85.8101,274.2997,1.8147e-05,1e-08,0.0,0 STARLINK-5219,1 54094U 22136AV  23158.74923924  .00000001  00000-0  18147-4 0  9991,2 54094  53.2155 169.7916 0000929  85.8101 274.2997 15.08836242 35127,6917.892,95.438,540.4,539.114,0.0
54094.0,STARLINK-5219,PAYLOAD,2023-06-08 09:52:45,15.08837281,9.49e-05,53.2153,166.8177,84.2177,275.8923,3.4665e-05,2.64e-06,0.0,0 STARLINK-5219,1 54094U 22136AV  23159.41163990  .00000264  00000-0  34665-4 0  9999,2 54094  53.2153 166.8177 0000949  84.2177 275.8923 15.08837281 35692,6917.889,95.438,540.41,539.097,0.0
54094.0,STARLINK-5219,PAYLOAD,2023-06-09 09:43:32,15.08843221,9.64e-05,53.2154,162.3571,82.8735,277.2366,6.1615e-05,6.93e-06,0.0,0 STARLINK-5219,1 54094U 22136AV  23160.40523529  .00000693  00000-0  61615-4 0  9999,2 54094  53.2154 162.3571 0000964  82.8735 277.2366 15.08843221 35376,6917.871,95.437,540.402,539.069,0.0
54094.0,STARLINK-5219,PAYLOAD,2023-06-09 17:40:28,15.0884051,9.75e-05,53.2152,160.8704,81.6546,278.4557,4.4803e-05,4.25e-06,0.0,0 STARLINK-5219,1 54094U 22136AV  23160.73643712  .00000425  00000-0  44803-4 0  9995,2 54094  53.2152 160.8704 0000975  81.6546 278.4557 15.08840510 35894,6917.879,95.438,540.418,539.069,0.0
54094.0,STARLINK-5219,PAYLOAD,2023-06-10 09:34:19,15.08840012,0.0001022,53.2152,157.8975,78.3557,281.755,3.1634e-05,2.16e-06,0.0,0 STARLINK-5219,1 54094U 22136AV  23161.39883831  .00000216  00000-0  31634-4 0  9992,2 54094  53.2152 157.8975 0001022  78.3557 281.7550 15.08840012 35526,6917.88,95.438,540.452,539.038,0.0
54094.0,STARLINK-5219,PAYLOAD,2023-06-11 09:25:06,15.08840185,0.0001072,53.2155,153.4362,82.6017,277.5097,4.1237e-06,-2.22e-06,0.0,0 STARLINK-5219,1 54094U 22136AV  23162.39243851 -.00000222  00000-0  41237-5 0  9994,2 54094  53.2155 153.4362 0001072  82.6017 277.5097 15.08840185 36144,6917.88,95.438,540.486,539.003,0.0
54094.0,STARLINK-5219,PAYLOAD,2023-06-12 06:05:07,15.08838687,0.000109,53.2159,149.5703,82.4209,277.6907,2.8319e-05,1.63e-06,0.0,0 STARLINK-5219,1 54094U 22136AV  23163.25355874  .00000163  00000-0  28319-4 0  9997,2 54094  53.2159 149.5703 0001090  82.4209 277.6907 15.08838687 35801,6917.884,95.438,540.503,538.995,0.0
54094.0,STARLINK-5219,PAYLOAD,2023-06-12 15:37:26,15.08836434,0.000106,53.2158,147.7863,79.6209,280.4903,2.4046e-06,-2.5e-06,0.0,0 STARLINK-5219,1 54094U 22136AV  23163.65100149 -.00000250  00000-0  24046-5 0  9996,2 54094  53.2158 147.7863 0001060  79.6209 280.4903 15.08836434 36337,6917.891,95.438,540.49,539.023,0.0
54094.0,STARLINK-5219,PAYLOAD,2023-06-12 21:58:59,15.08832616,0.0001076,53.2156,146.5976,83.2157,276.8957,-6.303e-06,-3.88e-06,0.0,0 STARLINK-5219,1 54094U 22136AV  23163.91596517 -.00000388  00000-0 -63030-5 0  9992,2 54094  53.2156 146.5976 0001076  83.2157 276.8957 15.08832616 35905,6917.903,95.438,540.512,539.024,0.0
54094.0,STARLINK-5219,PAYLOAD,2023-06-13 05:55:55,15.08834622,0.00011,53.2162,145.1112,83.8404,276.2713,-1.7877e-05,-5.72e-06,0.0,0 STARLINK-5219,1 54094U 22136AV  23164.24716545 -.00000572  00000-0 -17877-4 0  9996,2 54094  53.2162 145.1112 0001100  83.8404 276.2713 15.08834622 35956,6917.897,95.438,540.523,539.001,0.0
54094.0,STARLINK-5219,PAYLOAD,2023-06-13 23:25:09,15.08837702,0.0001139,53.2166,141.8403,85.7116,274.4006,1.9253e-05,1.9e-07,0.0,0 STARLINK-5219,1 54094U 22136AV  23164.97580404  .00000019  00000-0  19253-4 0  9993,2 54094  53.2166 141.8403 0001139  85.7116 274.4006 15.08837702 36531,6917.887,95.438,540.54,538.964,0.0
54094.0,STARLINK-5219,PAYLOAD,2023-06-14 07:22:04,15.08842993,0.0001155,53.2167,140.3536,85.7795,274.3329,6.1313e-05,6.88e-06,0.0,0 STARLINK-5219,1 54094U 22136AV  23165.30699950  .00000688  00000-0  61313-4 0  9994,2 54094  53.2167 140.3536 0001155  85.7795 274.3329 15.08842993 36113,6917.871,95.437,540.535,538.937,0.0
54094.0,STARLINK-5219,PAYLOAD,2023-06-14 15:19:00,15.0883794,0.0001139,53.2167,138.8669,92.4435,267.6687,-1.2242e-05,-4.83e-06,0.0,0 STARLINK-5219,1 54094U 22136AV  23165.63820497 -.00000483  00000-0 -12242-4 0  9994,2 54094  53.2167 138.8669 0001139  92.4435 267.6687 15.08837940 36163,6917.887,95.438,540.54,538.964,0.0
54094.0,STARLINK-5219,PAYLOAD,2023-06-15 02:26:43,15.08833045,0.0001133,53.2168,136.7846,94.6456,265.4665,3.2841e-05,2.35e-06,0.0,0 STARLINK-5219,1 54094U 22136AV  23166.10188800  .00000235  00000-0  32841-4 0  9992,2 54094  53.2168 136.7846 0001133  94.6456 265.4665 15.08833045 36703,6917.902,95.438,540.55,538.983,0.0
54094.0,STARLINK-5219,PAYLOAD,2023-06-15 08:48:15,15.08836681,0.000118,53.2166,135.5937,93.3896,266.7231,3.8824e-05,3.3e-06,0.0,0 STARLINK-5219,1 54094U 22136AV  23166.36684626  .00000330  00000-0  38824-4 0  9990,2 54094  53.2166 135.5937 0001180  93.3896 266.7231 15.08836681 36279,6917.891,95.438,540.572,538.939,0.0
54094.0,STARLINK-5219,PAYLOAD,2023-06-15 15:09:48,15.08836578,0.0001203,53.2167,134.4041,94.1026,266.0103,3.3446e-05,2.44e-06,0.0,0 STARLINK-5219,1 54094U 22136AV  23166.63180716  .00000244  00000-0  33446-4 0  9990,2 54094  53.2167 134.4041 0001203  94.1026 266.0103 15.08836578 36315,6917.891,95.438,540.588,538.924,0.0
54094.0,STARLINK-5219,PAYLOAD,2023-06-16 07:03:38,15.08845518,0.0001265,53.2166,131.4305,93.3607,266.753,5.2231e-05,5.44e-06,0.0,0 STARLINK-5219,1 54094U 22136AV  23167.29420110  .00000544  00000-0  52231-4 0  9994,2 54094  53.2166 131.4305 0001265  93.3607 266.7530 15.08845518 36885,6917.864,95.437,540.604,538.853,0.0
54094.0,STARLINK-5219,PAYLOAD,2023-06-16 15:00:34,15.08842775,0.0001276,53.2168,129.9437,93.1354,266.9785,6.2533e-06,-1.88e-06,0.0,0 STARLINK-5219,1 54094U 22136AV  23167.62540370 -.00000188  00000-0  62533-5 0  9994,2 54094  53.2168 129.9437 0001276  93.1354 266.9785 15.08842775 36464,6917.872,95.437,540.62,538.854,0.0
54094.0,STARLINK-5219,PAYLOAD,2023-06-17 06:54:26,15.08842235,0.0001256,53.2166,126.97,94.007,266.1066,6.5776e-05,7.59e-06,0.0,0 STARLINK-5219,1 54094U 22136AV  23168.28780159  .00000759  00000-0  65776-4 0  9992,2 54094  53.2166 126.9700 0001256  94.0070 266.1066 15.08842235 37034,6917.874,95.437,540.607,538.87,0.0
54094.0,STARLINK-5219,PAYLOAD,2023-06-17 14:51:21,15.08840074,0.0001234,53.2164,125.4832,94.1452,265.9682,1.0919e-05,-1.14e-06,0.0,0 STARLINK-5219,1 54094U 22136AV  23168.61900443 -.00000114  00000-0  10919-4 0  9994,2 54094  53.2164 125.4832 0001234  94.1452 265.9682 15.08840074 36616,6917.88,95.438,540.599,538.891,0.0
54094.0,STARLINK-5219,PAYLOAD,2023-06-18 06:45:13,15.08834857,0.0001277,53.2166,122.5097,94.3719,265.7419,-5.299e-05,-1.131e-05,0.0,0 STARLINK-5219,1 54094U 22136AV  23169.28141140 -.00001131  00000-0 -52990-4 0  9995,2 54094  53.2166 122.5097 0001277  94.3719 265.7419 15.08834857 37185,6917.896,95.438,540.645,538.878,0.0
54094.0,STARLINK-5219,PAYLOAD,2023-06-19 03:25:14,15.08839216,0.0001113,53.2166,118.6462,90.755,269.357,3.168e-05,2.16e-06,0.0,0 STARLINK-5219,1 54094U 22136AV  23170.14252608  .00000216  00000-0  31680-4 0  9998,2 54094  53.2166 118.6462 0001113  90.7550 269.3570 15.08839216 37316,6917.883,95.438,540.518,538.978,0.0
54094.0,STARLINK-5219,PAYLOAD,2023-06-19 05:00:37,15.08842104,0.0001245,53.2166,118.3488,93.1316,266.9818,2.1521e-05,5.5e-07,0.0,0 STARLINK-5219,1 54094U 22136AV  23170.20876494  .00000055  00000-0  21521-4 0  9994,2 54094  53.2166 118.3488 0001245  93.1316 266.9818 15.08842104 36850,6917.874,95.437,540.6,538.878,0.0
54094.0,STARLINK-5219,PAYLOAD,2023-06-20 03:16:01,15.08831954,0.0001281,53.2174,114.1853,96.9302,263.1836,3.5336e-05,2.74e-06,0.0,0 STARLINK-5219,1 54094U 22136AV  23171.13613265  .00000274  00000-0  35336-4 0  9994,2 54094  53.2174 114.1853 0001281  96.9302 263.1836 15.08831954 37463,6917.905,95.438,540.656,538.884,0.0
54094.0,STARLINK-5219,PAYLOAD,2023-06-20 04:51:24,15.08834579,0.0001273,53.2175,113.8878,96.1887,263.925,2.161e-05,5.6e-07,0.0,0 STARLINK-5219,1 54094U 22136AV  23171.20237169  .00000056  00000-0  21610-4 0  9995,2 54094  53.2175 113.8878 0001273  96.1887 263.9250 15.08834579 37002,6917.897,95.438,540.643,538.881,0.0
54094.0,STARLINK-5219,PAYLOAD,2023-06-20 12:48:20,15.08837331,0.0001296,53.2178,112.4015,96.5046,263.6094,2.7461e-05,1.49e-06,0.0,0 STARLINK-5219,1 54094U 22136AV  23171.53357058  .00000149  00000-0  27461-4 0  9994,2 54094  53.2178 112.4015 0001296  96.5046 263.6094 15.08837331 37056,6917.889,95.438,540.65,538.857,0.0
54094.0,STARLINK-5219,PAYLOAD,2023-06-21 06:17:34,15.08841989,0.000133,53.218,109.1312,102.3432,257.7709,9.8292e-06,-1.31e-06,0.0,0 STARLINK-5219,1 54094U 22136AV  23172.26221034 -.00000131  00000-0  98292-5 0  9992,2 54094  53.2180 109.1312 0001330 102.3432 257.7709 15.08841989 37631,6917.874,95.437,540.659,538.819,0.0
54094.0,STARLINK-5219,PAYLOAD,2023-06-21 12:39:07,15.08838725,0.000119,53.2175,107.9403,92.9367,267.1761,-1.6456e-05,-5.5e-06,0.0,0 STARLINK-5219,1 54094U 22136AV  23172.52717283 -.00000550  00000-0 -16456-4 0  9994,2 54094  53.2175 107.9403 0001190  92.9367 267.1761 15.08838725 37207,6917.884,95.438,540.573,538.926,0.0
